ONEWEB-0080             
1 45426U 20020C   25082.81603710  .00000103  00000+0  25384-3 0  9996
2 45426  87.8810 110.8465 0002125  82.4158 277.7211 13.11417756243684
ONEWEB-0090             
1 45427U 20020D   25082.83298553  .00000547  00000+0  15065-2 0  9990
2 45427  87.8811 110.8387 0001949  92.0504 268.0847 13.11414903243650
ONEWEB-0061             
1 45428U 20020E   25082.63616590 -.00000609  00000+0 -17543-2 0  9998
2 45428  87.8806 110.8641 0002057  93.9037 266.2326 13.11414670243574
ONEWEB-0081             
1 45429U 20020F   25082.61767088  .00000164  00000+0  42681-3 0  9992
2 45429  87.8806 110.8873 0002197  92.3958 267.7422 13.11412757243681
ONEWEB-0069             
1 45430U 20020G   25082.53119533  .00000333  00000+0  90342-3 0  9996
2 45430  87.8808 110.8952 0001908  90.8701 269.2646 13.11414650243602
ONEWEB-0031             
1 45431U 20020H   25082.12088577  .00000018  00000+0  13863-4 0  9999
2 45431  87.8815 111.0012 0001881  93.4011 266.7332 13.11417656243539
ONEWEB-0027             
1 45432U 20020J   25082.54961718  .00000043  00000+0  77268-4 0  9990
2 45432  87.9001  95.6083 0001609  92.5889 267.5427 13.17649123247017
ONEWEB-0064             
1 45433U 20020K   25082.80583749 -.00000188  00000+0 -56509-3 0  9990
2 45433  87.8811 110.8615 0001778  91.2248 268.9084 13.11415748243668
